ONEWEB-0320             
1 49190U 21083E   26002.51139873 -.00000159  00000+0 -43669-3 0  9991
2 49190  87.9171   8.3665 0001705  89.5777 270.5551 13.18685908208141
ONEWEB-0321             
1 49191U 21083F   26002.82386171 -.00000020  00000+0 -81209-4 0  9991
2 49191  87.9223 307.4179 0001571  68.8769 291.2532 13.20772866215000
ONEWEB-0322             
1 49192U 21083G   26002.46913230 -.00000039  00000+0 -14080-3 0  9996
2 49192  87.8975 353.1851 0001677  69.3515 290.7794 13.13469955209169
ONEWEB-0324             
1 49193U 21083H   26002.49737623  .00000095  00000+0  20706-3 0  9992
2 49193  87.9171   8.3479 0001606  92.2332 267.8984 13.18687483208166
ONEWEB-0325             
1 49194U 21083J   26002.50067094 -.00000097  00000+0 -27878-3 0  9994
2 49194  87.9173   8.3665 0001794  87.7260 272.4078 13.18684869208175
ONEWEB-0326             
1 49195U 21083K   26002.51566719  .00000040  00000+0  69511-4 0  9991
2 49195  87.9171   8.3504 0002038  93.9494 266.1871 13.18686962208162
ONEWEB-0327             
1 49196U 21083L   26002.51538067 -.00000145  00000+0 -40164-3 0  9997
2 49196  87.9164   8.3682 0002117  91.0556 269.0818 13.18685575208182
ONEWEB-0328             
1 49197U 21083M   26002.45897385 -.00000245  00000+0 -70685-3 0  9994
2 49197  87.8989 353.1381 0001605  88.6536 271.4777 13.13469545209145
